{
  "name": "SATGUS",
  "line1": "1 62713U 25009DJ  25260.18768751  .00005033  00000+0  44919-3 0  9993",
  "line2": "2 62713  97.7297 339.3127 0001592  22.9019 337.2273 14.96393270 36662",
  "fetched_at": "2025-09-18T00:16:38.891802+00:00"
}